COSMOS 2426 (717)       
1 29671U 06062B   19108.78957101 -.00000011  00000-0  10000-3 0  9993
2 29671  65.1503 282.3021 0017530 158.4626 217.4938  2.13103048 95834
COSMOS 2433 (720)       
1 32275U 07052A   19108.63295604 -.00000068  00000-0  10000-3 0  9996
2 32275  65.8294  43.1284 0004205 285.8936 306.3390  2.13104445 89330
COSMOS 2432 (719)       
1 32276U 07052B   19108.59663868 -.00000068  00000-0  10000-3 0  9993
2 32276  65.8405  43.2119 0013005 330.0398 185.5510  2.13103916 89339
COSMOS 2434 (721)       
1 32393U 07065A   19108.53130961 -.00000011  00000-0  00000+0 0  9997
2 32393  64.7494 281.0362 0005481  92.8401 308.8877  2.13102959 88043
COSMOS 2436 (723)       
1 32395U 07065C   19109.43518417 -.00000016  00000-0  10000-3 0  9995
2 32395  64.7614 281.0589 0016740   6.9450  60.2025  2.13104393 87991
COSMOS 2456 (730)       
1 36111U 09070A   19109.33840108  .00000063  00000-0  00000+0 0  9993
2 36111  64.1956 160.6383 0005478 307.6049 166.2538  2.13102919 72722
COSMOS 2457 (733)       
1 36112U 09070B   19109.12058047  .00000064  00000-0  00000+0 0  9995
2 36112  64.1791 160.5494 0005235 182.9908 249.1308  2.13101597 72728
COSMOS 2459 (731)       
1 36400U 10007A   19109.37692792 -.00000069  00000-0  10000-3 0  9996
2 36400  65.7339  42.1289 0028226 348.9574 310.4558  2.13102261 71073
COSMOS 2461 (735)       
1 36401U 10007B   19109.04049089 -.00000069  00000-0  10000-3 0  9996
2 36401  65.7285  42.1109 0006854  46.0581 265.7846  2.13102239 71068
COSMOS 2460 (732)       
1 36402U 10007C   19109.13014940 -.00000069  00000-0  10000-3 0  9995
2 36402  65.7184  42.0735 0002272 328.7624  91.8918  2.13101567 71071
COSMOS 2464 (736)       
1 37139U 10041C   19108.72792375 -.00000013  00000-0  00000+0 0  9994
2 37139  64.3546 280.6826 0026225  16.1083  43.1779  2.13100716 67130
COSMOS 2474 (742)       
1 37829U 11055A   19109.47409209  .00000062  00000-0  00000+0 0  9993
2 37829  64.5180 161.4814 0009927 249.7362 184.9332  2.13101907 58726
COSMOS 2476 (744)       
1 37867U 11064A   19109.44372425  .00000062  00000-0  00000+0 0  9991
2 37867  64.4972 161.5373 0020019 242.4498 215.0506  2.13102018 58073
COSMOS 2477 (745)       
1 37868U 11064B   19108.61643958  .00000066  00000-0  00000-0 0  9997
2 37868  64.5065 161.6144 0017544 243.7604 117.7977  2.13101802 58011
COSMOS 2475 (743)       
1 37869U 11064C   19108.66765632  .00000065  00000-0  00000-0 0  9996
2 37869  64.5133 161.6133 0022086 265.7331  92.1293  2.13101980 58018
COSMOS 2485 (747)       
1 39155U 13019A   19108.63803519  .00000066  00000-0  00000+0 0  9992
2 39155  64.6669 161.7389 0020307 237.6493   6.5035  2.13101928 46526
COSMOS 2492 (754)       
1 39620U 14012A   19109.39598295 -.00000069  00000-0  10000-3 0  9998
2 39620  65.6075  41.9067 0016246 326.9232 173.7623  2.13103394 39494
COSMOS 2500 (755)       
1 40001U 14032A   19108.60359700 -.00000069  00000-0  00000-0 0  9990
2 40001  65.5484  41.8807 0005473 228.7084 245.6387  2.13102828 37694
COSMOS 2501 (702K)      
1 40315U 14075A   19108.70162032 -.00000013  00000-0  00000+0 0  9994
2 40315  64.0731 281.7847 0014670 203.4741 144.5940  2.13098635 34092
COSMOS 2514 (751)       
1 41330U 16008A   19109.11761813 -.00000070  00000-0  00000+0 0  9991
2 41330  65.3506  41.8401 0009159 229.8542 100.3935  2.13103203 24868
COSMOS 2516 (753)       
1 41554U 16032A   19109.33823347 -.00000016  00000-0  00000+0 0  9991
2 41554  64.2956 281.7134 0010406 212.0216 178.1108  2.13101737 22481
COSMOS 2522 (752)       
1 42939U 17055A   19109.12018873 -.00000015  00000-0  00000+0 0  9991
2 42939  64.5275 281.7761 0004978 246.0410 203.3066  2.13101960 12236
COSMOS 2527 (756)       
1 43508U 18053A   19108.66080434  .00000066  00000-0  00000+0 0  9998
2 43508  64.8319 161.4950 0008260 240.3379 247.6396  2.13102672  6516
COSMOS 2529 (757)       
1 43687U 18086A   19109.29656472 -.00000015  00000-0  00000+0 0  9998
2 43687  64.7384 281.7761 0007991 278.6050 261.7612  2.13102006  3540
